{
    "links": {
        "self": "http://www.neowsapp.com/rest/v1/neo/3838136?api_key=iIulBulltgU6a56xZRHN4H3l9WmuAYTsLGpBGhQ2"
    },
    "id": "3838136",
    "neo_reference_id": "3838136",
    "name": "(2019 CA2)",
    "designation": "2019 CA2",
    "nasa_jpl_url": "http://ssd.jpl.nasa.gov/sbdb.cgi?sstr=3838136",
    "absolute_magnitude_h": 27.2,
    "estimated_diameter": {
        "kilometers": {
            "estimated_diameter_min": 0.0096506147,
            "estimated_diameter_max": 0.0215794305
        },
        "meters": {
            "estimated_diameter_min": 9.6506146958,
            "estimated_diameter_max": 21.5794304844
        },
        "miles": {
            "estimated_diameter_min": 0.0059966121,
            "estimated_diameter_max": 0.0134088323
        },
        "feet": {
            "estimated_diameter_min": 31.6621227185,
            "estimated_diameter_max": 70.7986587106
        }
    },
    "is_potentially_hazardous_asteroid": false,
    "close_approach_data": [
        {
            "close_approach_date": "2019-01-26",
            "close_approach_date_full": "2019-Jan-26 14:41",
            "epoch_date_close_approach": 1548513660000,
            "relative_velocity": {
                "kilometers_per_second": "10.0974325744",
                "kilometers_per_hour": "36350.7572678026",
                "miles_per_hour": "22586.9469256521"
            },
            "miss_distance": {
                "astronomical": "0.0122572428",
                "lunar": "4.7680674492",
                "kilometers": "1833657.414952836",
                "miles": "1139381.8838116968"
            },
            "orbiting_body": "Earth"
        }
    ],
    "orbital_data": {
        "orbit_id": "1",
        "orbit_determination_date": "2019-02-07 11:42:07",
        "first_observation_date": "2019-02-05",
        "last_observation_date": "2019-02-06",
        "data_arc_in_days": 1,
        "observations_used": 12,
        "orbit_uncertainty": "8",
        "minimum_orbit_intersection": ".0122274",
        "jupiter_tisserand_invariant": "4.198",
        "epoch_osculation": "2458520.5",
        "eccentricity": ".4506926734429792",
        "semi_major_axis": "1.621659366484499",
        "inclination": "6.821871042294424",
        "ascending_node_longitude": "131.5815035154992",
        "orbital_period": "754.2891820123469",
        "perihelion_distance": ".8907893711897521",
        "perihelion_argument": "307.2456161913776",
        "aphelion_distance": "2.352529361779246",
        "perihelion_time": "2458474.135001045667",
        "mean_anomaly": "22.12864776746414",
        "mean_motion": ".4772705330859527",
        "equinox": "J2000",
        "orbit_class": {
            "orbit_class_type": "APO",
            "orbit_class_description": "Near-Earth asteroid orbits which cross the Earth’s orbit similar to that of 1862 Apollo",
            "orbit_class_range": "a (semi-major axis) > 1.0 AU; q (perihelion) < 1.017 AU"
        }
    },
    "is_sentry_object": false
}